[{"OBJECT_NAME":"NINGXIA-1 10","OBJECT_ID":"2021-064E","EPOCH":"2026-03-09T23:44:17.361312","MEAN_MOTION":14.0853583,"ECCENTRICITY":0.00072731,"INCLINATION":45.0007,"RA_OF_ASC_NODE":314.6094,"ARG_OF_PERICENTER":147.7012,"MEAN_ANOMALY":212.4271,"EPHEMERIS_TYPE":0,"CLASSIFICATION_TYPE":"U","NORAD_CAT_ID":49022,"ELEMENT_SET_NO":999,"REV_AT_EPOCH":24024,"BSTAR":-7.1787842e-5,"MEAN_MOTION_DOT":-2.56e-6,"MEAN_MOTION_DDOT":0},{"OBJECT_NAME":"CZ-6A DEB","OBJECT_ID":"2024-140YS","EPOCH":"2026-03-09T02:26:18.859488","MEAN_MOTION":14.18344805,"ECCENTRICITY":0.00542783,"INCLINATION":89.006,"RA_OF_ASC_NODE":286.7948,"ARG_OF_PERICENTER":168.5131,"MEAN_ANOMALY":191.7311,"EPHEMERIS_TYPE":0,"CLASSIFICATION_TYPE":"U","NORAD_CAT_ID":61425,"ELEMENT_SET_NO":999,"REV_AT_EPOCH":7990,"BSTAR":0.00015738805,"MEAN_MOTION_DOT":3.43e-6,"MEAN_MOTION_DDOT":0}]
